[{"OBJECT_NAME":"JY1SAT (JO-97)","OBJECT_ID":"2018-099AX","EPOCH":"2026-03-09T16:28:19.890048","MEAN_MOTION":15.30302629,"ECCENTRICITY":0.00047232,"INCLINATION":97.4249,"RA_OF_ASC_NODE":131.3625,"ARG_OF_PERICENTER":256.6795,"MEAN_ANOMALY":103.3919,"EPHEMERIS_TYPE":0,"CLASSIFICATION_TYPE":"U","NORAD_CAT_ID":43803,"ELEMENT_SET_NO":999,"REV_AT_EPOCH":39839,"BSTAR":0.00060804308,"MEAN_MOTION_DOT":0.00017774,"MEAN_MOTION_DDOT":0},{"OBJECT_NAME":"STARLINK-32697","OBJECT_ID":"2024-251E","EPOCH":"2026-03-09T23:32:13.064064","MEAN_MOTION":15.30192066,"ECCENTRICITY":0.00010773,"INCLINATION":53.1595,"RA_OF_ASC_NODE":333.9073,"ARG_OF_PERICENTER":112.6856,"MEAN_ANOMALY":247.4259,"EPHEMERIS_TYPE":0,"CLASSIFICATION_TYPE":"U","NORAD_CAT_ID":62436,"ELEMENT_SET_NO":999,"REV_AT_EPOCH":6799,"BSTAR":0.00045008429,"MEAN_MOTION_DOT":0.00012991,"MEAN_MOTION_DDOT":0}]
